0 FENGYUN 1C DEB
1 38831U 99025EVX 13268.70209291  .00000270  00000-0  20323-3 0   216
2 38831 099.0729 235.6094 0061632 230.8762 137.9491 14.02047174256092
0 FENGYUN 1C DEB
1 38831U 99025EVX 13271.12662252  .00000266  00000-0  20080-3 0   222
2 38831 099.0718 237.9953 0058166 227.9436 131.5960 14.02047633256431
